ORBCOMM FM33 [-]        
1 25983U 99065D   23284.41307528  .00003186  00000+0  11153-2 0  9995
2 25983  45.0303  33.8372 0010112 213.3544 277.7486 14.36827455247635
ORBCOMM FM36 [-]        
1 25984U 99065E   23283.83374709  .00002141  00000+0  79888-3 0  9996
2 25984  45.0383 118.4145 0003894  92.6156 267.5137 14.34693512245954
ORBCOMM FM35 [+]        
1 25985U 99065F   23284.38060977  .00002024  00000+0  76237-3 0  9992
2 25985  45.0383 117.9136 0002966 197.2656 162.8091 14.34401281246626
ORBCOMM FM34 [-]        
1 25986U 99065G   23283.78738220  .00001973  00000+0  74517-3 0  9990
2 25986  45.0378 121.1803 0003811 137.4091 222.7053 14.34346056246507
ORBCOMM FM38 [-]        
1 33060U 08031A   23284.18618658  .00003933  00000+0  59210-3 0  9993
2 33060  48.4429 353.4498 0006335 284.5142  75.5069 14.76168664823738
ORBCOMM FM41 [-]        
1 33061U 08031B   23283.74840355  .00004176  00000+0  63032-3 0  9993
2 33061  48.4465   1.6646 0005497 270.6310 234.1071 14.75931804823185
ORBCOMM FM29 [-]        
1 33062U 08031C   23284.45761084  .00004111  00000+0  62256-3 0  9990
2 33062  48.4418   6.2920 0007381 271.3999 179.4178 14.75817054823599
ORBCOMM FM39 [-]        
1 33063U 08031D   23284.41035082  .00003925  00000+0  60725-3 0  9990
2 33063  48.4427  25.5669 0008244 249.1951 110.8080 14.74973870823335
